NORAD_CAT_ID,OBJECT_NAME,OBJECT_TYPE,EPOCH,MEAN_MOTION,ECCENTRICITY,INCLINATION,RA_OF_ASC_NODE,ARG_OF_PERICENTER,MEAN_ANOMALY,BSTAR,MEAN_MOTION_DOT,MEAN_MOTION_DDOT,TLE_LINE0,TLE_LINE1,TLE_LINE2,SEMIMAJOR_AXIS,PERIOD,APOGEE,PERIGEE,DECAYED
51462.0,STARLINK-3166,PAYLOAD,2024-08-15 23:26:07,15.08863043,9.24e-05,53.217,321.1672,56.2749,303.8332,0.0002216,3.243e-05,0.0,0 STARLINK-3166,1 51462U 22010G   24228.97647235  .00003243  00000-0  22160-3 0  9990,2 51462  53.2170 321.1672 0000924  56.2749 303.8332 15.08863043141138,6917.81,95.436,540.314,539.036,0.0
51462.0,STARLINK-3166,PAYLOAD,2024-08-16 10:33:49,15.0884645,0.0002396,53.217,319.0806,75.5779,284.5479,6.0241e-05,6.71e-06,0.0,0 STARLINK-3166,1 51462U 22010G   24229.44015782  .00000671  00000-0  60241-4 0  9994,2 51462  53.2170 319.0806 0002396  75.5779 284.5479 15.08846450141203,6917.861,95.437,541.383,538.068,0.0
51462.0,STARLINK-3166,PAYLOAD,2024-08-17 05:38:26,15.0884919,0.0001219,53.2165,315.5168,65.7877,294.3243,0.0001132,1.515e-05,0.0,0 STARLINK-3166,1 51462U 22010G   24230.23503233  .00001515  00000-0  11320-3 0  9997,2 51462  53.2165 315.5168 0001219  65.7877 294.3243 15.08849190140854,6917.852,95.437,540.561,538.874,0.0
51462.0,STARLINK-3166,PAYLOAD,2024-08-18 11:50:46,15.08848327,0.0001515,53.217,309.8678,74.4175,285.6984,8.4081e-05,1.051e-05,0.0,0 STARLINK-3166,1 51462U 22010G   24231.49358894  .00001051  00000-0  84081-4 0  9997,2 51462  53.2170 309.8678 0001515  74.4175 285.6984 15.08848327141519,6917.855,95.437,540.768,538.672,0.0
51462.0,STARLINK-3166,PAYLOAD,2024-08-18 15:01:31,15.08852358,0.0001378,53.2158,309.2692,118.5494,241.5637,0.00012467,1.697e-05,0.0,0 STARLINK-3166,1 51462U 22010G   24231.62606143  .00001697  00000-0  12467-3 0  9999,2 51462  53.2158 309.2692 0001378 118.5494 241.5637 15.08852358141061,6917.843,95.437,540.661,538.754,0.0
51462.0,STARLINK-3166,PAYLOAD,2024-08-19 10:06:10,15.08844087,0.0001875,53.2168,305.6922,136.9159,223.1981,-0.00011514,-2.12e-05,0.0,0 STARLINK-3166,1 51462U 22010G   24232.42094945 -.00002120  00000-0 -11514-3 0  9995,2 51462  53.2168 305.6922 0001875 136.9159 223.1981 15.08844087141655,6917.868,95.437,541.03,538.436,0.0
51462.0,STARLINK-3166,PAYLOAD,2024-08-19 14:52:19,15.08837204,0.0001489,53.217,304.8091,116.451,243.6635,-1.2335e-05,-4.84e-06,0.0,0 STARLINK-3166,1 51462U 22010G   24232.61967477 -.00000484  00000-0 -12335-4 0  9999,2 51462  53.2170 304.8091 0001489 116.4510 243.6635 15.08837204141219,6917.889,95.438,540.784,538.724,0.0
51462.0,STARLINK-3166,PAYLOAD,2024-08-20 11:32:19,15.08852334,0.0001488,53.2173,300.9429,111.9867,248.1283,1.1091e-06,-2.7e-06,0.0,0 STARLINK-3166,1 51462U 22010G   24233.48078695 -.00000270  00000-0  11091-5 0  9991,2 51462  53.2173 300.9429 0001488 111.9867 248.1283 15.08852334141814,6917.843,95.437,540.737,538.678,0.0
51462.0,STARLINK-3166,PAYLOAD,2024-08-21 05:01:35,15.08832925,0.0001689,53.218,297.6732,109.7351,250.3823,8.7138e-05,1.099e-05,0.0,0 STARLINK-3166,1 51462U 22010G   24234.20944036  .00001099  00000-0  87138-4 0  9996,2 51462  53.2180 297.6732 0001689 109.7351 250.3823 15.08832925141928,6917.902,95.438,540.935,538.599,0.0
51462.0,STARLINK-3166,PAYLOAD,2024-08-21 09:47:45,15.08814539,0.0001581,53.2174,296.7819,106.0284,254.0883,0.000214,3.117e-05,0.0,0 STARLINK-3166,1 51462U 22010G   24234.40816833  .00003117  00000-0  21400-3 0  9993,2 51462  53.2174 296.7819 0001581 106.0284 254.0883 15.08814539141954,6917.958,95.439,540.917,538.729,0.0
51462.0,STARLINK-3166,PAYLOAD,2024-08-21 20:55:27,15.08835694,0.0001426,53.2166,294.6994,95.6732,264.4422,8.66e-05,1.09e-05,0.0,0 STARLINK-3166,1 51462U 22010G   24234.87184210  .00001090  00000-0  86600-4 0  9993,2 51462  53.2166 294.6994 0001426  95.6732 264.4422 15.08835694142023,6917.894,95.438,540.745,538.772,0.0
